NORAD_CAT_ID,OBJECT_NAME,OBJECT_TYPE,EPOCH,MEAN_MOTION,ECCENTRICITY,INCLINATION,RA_OF_ASC_NODE,ARG_OF_PERICENTER,MEAN_ANOMALY,BSTAR,MEAN_MOTION_DOT,MEAN_MOTION_DDOT,TLE_LINE0,TLE_LINE1,TLE_LINE2,SEMIMAJOR_AXIS,PERIOD,APOGEE,PERIGEE,DECAYED
54171.0,STARLINK-5229,PAYLOAD,2022-12-16 14:00:01,15.23670132,0.0001284999999999,53.2172,262.386,92.1706,190.0969,-0.051493,-0.01153946,0.0,0 STARLINK-5229,1 54171U 22141Q   22350.58334491 -.01153946  00000-0 -51493-1 0  9991,2 54171  53.2172 262.3860 0001285  92.1706 190.0969 15.23670132  1306,6872.919,94.509,495.667,493.901,0.0
54171.0,STARLINK-5229,PAYLOAD,2022-12-16 22:00:00,15.22852829,0.0001230999999999,53.2176,260.856,91.0082,220.1752,-0.052519,-0.01148961,0.0,0 STARLINK-5229,1 54171U 22141Q   22350.91667824 -.01148961  00000-0 -52519-1 0  9998,2 54171  53.2176 260.8560 0001231  91.0082 220.1752 15.22852829  7839,6875.378000000002,94.559,498.089,496.396,0.0
54171.0,STARLINK-5229,PAYLOAD,2022-12-17 14:00:01,15.2122337,0.0001113,53.2173,257.8008,92.2446,273.8982,-0.054957,-0.01145832,0.0,0 STARLINK-5229,1 54171U 22141Q   22351.58335648 -.01145832  00000-0 -54957-1 0  9990,2 54171  53.2173 257.8008 0001113  92.2446 273.8982 15.21223370  1303,6880.286,94.661,502.917,501.386,0.0
54171.0,STARLINK-5229,PAYLOAD,2022-12-17 22:00:00,15.20434067,0.0001206,53.2171,256.2782,94.5487,297.499,-0.058118,-0.01180937,0.0,0 STARLINK-5229,1 54171U 22141Q   22351.91667824 -.01180937  00000-0 -58118-1 0  9999,2 54171  53.2171 256.2782 0001206  94.5487 297.4990 15.20434067  1303,6882.667,94.71,505.362,503.702,0.0
54171.0,STARLINK-5229,PAYLOAD,2022-12-18 14:00:01,15.18782419,0.0001200999999999,53.2174,253.2337,91.0217,350.0659,-0.059061,-0.0114638,0.0,0 STARLINK-5229,1 54171U 22141Q   22352.58334491 -.01146380  00000-0 -59061-1 0  9996,2 54171  53.2174 253.2337 0001201  91.0217 350.0659 15.18782419  1309,6887.656,94.813,510.349,508.694,0.0
54171.0,STARLINK-5229,PAYLOAD,2022-12-18 22:00:00,15.17969802,0.0001293,53.2175,251.7165,92.9524,11.181,-0.060572,-0.0114817,0.0,0 STARLINK-5229,1 54171U 22141Q   22352.91667824 -.01148170  00000-0 -60572-1 0  9990,2 54171  53.2175 251.7165 0001293  92.9524  11.1810 15.17969802  1300,6890.114000000001,94.864,512.87,511.088,0.0
54171.0,STARLINK-5229,PAYLOAD,2022-12-19 04:00:00,15.17357617,0.000117,53.2175,250.5795,94.8928,295.8841,-0.061443,-0.01144526,0.0,0 STARLINK-5229,1 54171U 22141Q   22353.16667824 -.01144526  00000-0 -61443-1 0  9997,2 54171  53.2175 250.5795 0001170  94.8928 295.8841 15.17357617  8171,6891.967,94.902,514.639,513.026,0.0
54171.0,STARLINK-5229,PAYLOAD,2022-12-19 10:00:00,15.16750926,0.0001264,53.2174,249.4415,104.504,212.3662,-0.062923,-0.01151242,0.0,0 STARLINK-5229,1 54171U 22141Q   22353.41667824 -.01151242  00000-0 -62923-1 0  9992,2 54171  53.2174 249.4415 0001264 104.5040 212.3662 15.16750926  1306,6893.805,94.94,516.5409999999998,514.799,0.0
54171.0,STARLINK-5229,PAYLOAD,2022-12-19 22:00:00,15.15527198,0.0001415,53.2175,247.1722,94.6237,72.7841,-0.06484,-0.01145899,0.0,0 STARLINK-5229,1 54171U 22141Q   22353.91667824 -.01145899  00000-0 -64840-1 0  9998,2 54171  53.2175 247.1722 0001415  94.6237  72.7841 15.15527198  8281,6897.515,95.016,520.356,518.404,0.0
54171.0,STARLINK-5229,PAYLOAD,2022-12-20 14:00:01,15.13904393,0.0001450999999999,53.2169,244.1518,90.3474,114.3518,-0.06835,-0.01152871,0.0,0 STARLINK-5229,1 54171U 22141Q   22354.58334491 -.01152871  00000-0 -68350-1 0  9991,2 54171  53.2169 244.1518 0001451  90.3474 114.3518 15.13904393  1304,6902.444,95.118,525.31,523.307,0.0
54171.0,STARLINK-5229,PAYLOAD,2022-12-20 22:00:01,15.13092324,0.0001498,53.217,242.6456,108.1344,113.8062,-0.070053,-0.01154656,0.0,0 STARLINK-5229,1 54171U 22141Q   22354.91668981 -.01154656  00000-0 -70053-1 0  9998,2 54171  53.2170 242.6456 0001498 108.1344 113.8062 15.13092324  8436,6904.913000000001,95.169,527.813,525.744,0.0
54171.0,STARLINK-5229,PAYLOAD,2022-12-21 14:00:01,15.11458757,0.0001489,53.2173,239.6349,114.0675,139.2403,-0.072766,-0.01146332,0.0,0 STARLINK-5229,1 54171U 22141Q   22355.58334491 -.01146332  00000-0 -72766-1 0  9993,2 54171  53.2173 239.6349 0001489 114.0675 139.2403 15.11458757  1303,6909.887,95.272,532.781,530.724,0.0
54171.0,STARLINK-5229,PAYLOAD,2022-12-21 22:00:00,15.10651029,0.0001513,53.2168,238.1357,113.2087,154.3409,-0.074948,-0.0115379,0.0,0 STARLINK-5229,1 54171U 22141Q   22355.91667824 -.01153790  00000-0 -74948-1 0  9999,2 54171  53.2168 238.1357 0001513 113.2087 154.3409 15.10651029  8594,6912.35,95.323,535.261,533.169,0.0
54171.0,STARLINK-5229,PAYLOAD,2022-12-22 14:00:01,15.08984583,0.0001289,53.2173,235.136,84.71,208.4259,-0.014486,-0.0022461,0.0,0 STARLINK-5229,1 54171U 22141Q   22356.58334491 -.00224610  00000-0 -14486-1 0  9994,2 54171  53.2173 235.1360 0001289  84.7100 208.4259 15.08984583  8695,6917.438,95.428,540.195,538.4119999999998,0.0
54171.0,STARLINK-5229,PAYLOAD,2022-12-22 22:00:00,15.0883595,0.0001359,53.2174,233.6413,86.5398,218.263,8.619799999999999e-05,1.084e-05,0.0,0 STARLINK-5229,1 54171U 22141Q   22356.91667824  .00001084  00000-0  86198-4 0  9998,2 54171  53.2174 233.6413 0001359  86.5398 218.2630 15.08835950  8746,6917.893,95.438,540.698,538.818,0.0
54171.0,STARLINK-5229,PAYLOAD,2022-12-23 14:00:01,15.08878799,0.0001262999999999,53.2132,230.6527,92.9232,235.1706,-0.0032302,-0.00051384,0.0,0 STARLINK-5229,1 54171U 22141Q   22357.58334491 -.00051384  00000-0 -32302-2 0  9999,2 54171  53.2132 230.6527 0001263  92.9232 235.1706 15.08878799  8846,6917.762,95.435,540.501,538.753,0.0
54171.0,STARLINK-5229,PAYLOAD,2022-12-23 22:00:01,15.08848837,0.0001264999999999,53.2131,229.1578,82.9794,256.7957,-0.0032942,-0.00052346,0.0,0 STARLINK-5229,1 54171U 22141Q   22357.91668981 -.00052346  00000-0 -32942-2 0  9999,2 54171  53.2131 229.1578 0001265  82.9794 256.7957 15.08848837  1309,6917.853,95.437,540.5930000000002,538.8430000000002,0.0
54171.0,STARLINK-5229,PAYLOAD,2022-12-24 14:00:01,15.0880313,0.0001323,53.2132,226.1633,91.3436,271.5259,0.0029204,0.0004645,0.0,0 STARLINK-5229,1 54171U 22141Q   22358.58334491  .00046450  00000-0  29204-2 0  9993,2 54171  53.2132 226.1633 0001323  91.3436 271.5259 15.08803130  8990,6917.993,95.44,540.773,538.943,0.0
54171.0,STARLINK-5229,PAYLOAD,2022-12-24 22:00:00,15.08832579,0.0001399,53.2132,224.6685,82.061,292.3812,-0.00049387,-8.138e-05,0.0,0 STARLINK-5229,1 54171U 22141Q   22358.91667824 -.00008138  00000-0 -49387-3 0  9997,2 54171  53.2132 224.6685 0001399  82.0610 292.3812 15.08832579  1307,6917.903,95.438,540.736,538.8,0.0
54171.0,STARLINK-5229,PAYLOAD,2022-12-25 06:00:00,15.08858279,0.0001393,53.2131,223.1716,81.4655,304.5566,-0.0042878,-0.00067919,0.0,0 STARLINK-5229,1 54171U 22141Q   22359.25001157 -.00067919  00000-0 -42878-2 0  9995,2 54171  53.2131 223.1716 0001393  81.4655 304.5566 15.08858279  9092,6917.825,95.436,540.653,538.726,0.0
54171.0,STARLINK-5229,PAYLOAD,2022-12-25 14:00:01,15.08800703,0.0001471,53.2133,221.6739,91.3519,306.2586,0.0024792,0.00039347,0.0,0 STARLINK-5229,1 54171U 22141Q   22359.58334491  .00039347  00000-0  24792-2 0  9998,2 54171  53.2133 221.6739 0001471  91.3519 306.2586 15.08800703  1304,6918.001,95.44,540.883,538.8480000000002,0.0
54171.0,STARLINK-5229,PAYLOAD,2022-12-25 22:00:00,15.08821916,0.000152,53.2133,220.1792,82.791,326.3839,-0.00052012,-8.552e-05,0.0,0 STARLINK-5229,1 54171U 22141Q   22359.91667824 -.00008552  00000-0 -52012-3 0  9997,2 54171  53.2133 220.1792 0001520  82.7910 326.3839 15.08821916  9199,6917.936,95.439,540.852,538.749,0.0
54171.0,STARLINK-5229,PAYLOAD,2022-12-26 00:00:00,15.08805218,0.0001496999999999,53.2134,219.8053,81.1729,60.8995,0.0018571,0.00029363,0.0,0 STARLINK-5229,1 54171U 22141Q   22360.00001157  .00029363  00000-0  18571-2 0  9992,2 54171  53.2134 219.8053 0001497  81.1729  60.8995 15.08805218  1304,6917.986999999999,95.44,540.887,538.816,0.0
54171.0,STARLINK-5229,PAYLOAD,2022-12-26 00:57:47,15.08851369,0.000127,53.2151,219.6238,93.443,266.6708,-0.00047367,-7.821e-05,0.0,0 STARLINK-5229,1 54171U 22141Q   22360.04012923 -.00007821  00000-0 -47367-3 0  9992,2 54171  53.2151 219.6238 0001270  93.4430 266.6708 15.08851369  9214,6917.846,95.437,540.589,538.832,0.0
54171.0,STARLINK-5229,PAYLOAD,2022-12-26 07:19:20,15.08817767,0.0001136,53.2151,218.4343,85.3674,274.7447,-9.377e-05,-1.779e-05,0.0,0 STARLINK-5229,1 54171U 22141Q   22360.30510312 -.00001779  00000-0 -93770-4 0  9992,2 54171  53.2151 218.4343 0001136  85.3674 274.7447 15.08817767  9257,6917.948,95.439,540.599,539.0269999999998,0.0
54171.0,STARLINK-5229,PAYLOAD,2022-12-26 21:37:49,15.08817933,0.0001216,53.2149,215.7578,83.7793,276.3337,-1.5485e-05,-5.34e-06,0.0,0 STARLINK-5229,1 54171U 22141Q   22360.90126998 -.00000534  00000-0 -15485-4 0  9996,2 54171  53.2149 215.7578 0001216  83.7793 276.3337 15.08817933  9348,6917.948,95.439,540.654,538.972,0.0
54171.0,STARLINK-5229,PAYLOAD,2022-12-27 00:48:35,15.08820446,0.0001258,53.2147,215.1629,84.5457,275.5678,7.6748e-06,-1.66e-06,0.0,0 STARLINK-5229,1 54171U 22141Q   22361.03374949 -.00000166  00000-0  76748-5 0  9992,2 54171  53.2147 215.1629 0001258  84.5457 275.5678 15.08820446  9363,6917.94,95.439,540.675,538.935,0.0
54171.0,STARLINK-5229,PAYLOAD,2022-12-27 15:07:04,15.0882297,0.0001361999999999,53.2143,212.4869,86.7317,273.3831,0.00010912,1.448e-05,0.0,0 STARLINK-5229,1 54171U 22141Q   22361.62991076  .00001448  00000-0  10912-3 0  9995,2 54171  53.2143 212.4869 0001362  86.7317 273.3831 15.08822970  9451,6917.932,95.439,540.74,538.855,0.0
54171.0,STARLINK-5229,PAYLOAD,2022-12-27 23:03:59,15.08828886,0.0001376999999999,53.2142,211.0001,87.0695,273.0454,0.00014987,2.097e-05,0.0,0 STARLINK-5229,1 54171U 22141Q   22361.96110933  .00002097  00000-0  14987-3 0  9994,2 54171  53.2142 211.0001 0001377  87.0695 273.0454 15.08828886  9508,6917.9140000000025,95.438,540.732,538.827,0.0
